id	external id	Name	closed	website	website down	twitter	facebook	linkedin	lat	lng	address	city	region	country	description	email	source	exclude																			place holder
1	69	88 MPH (400 NG)		www.88mph.ac/lagos		88mph_Africa						Lagos		Nigeria			worldbank	x																			
2	47	88 MPH/Start-up Garage		www.88mph.ac/nairobi		88mph_Africa						Nairobi		Kenya			worldbank	x																			
3		ACSE					https://www.facebook.com/AlgerianCenterForSocialEntrepreneurship				107 Boulevard Des Martyrs, Sidi M&#039;Hamed, Alg�rie				<b>The Algerian Center for Social Entrepreneurship (ACSE)</b> a �t� cr�� en 2013 et a comme mission que chaque probl�me social et environnemental en Alg�rie trouve une solution innovante et entrepreneuriale. Pour ce faire, ACSE d�veloppe deux volets : <b>un volet promotion</b>, visant � sensibiliser, valoriser et f�d�rer autour de l'entrepreneuriat social en Alg�rie, et <b>un volet accompagnement</b> se concr�tisant par une incubation de huit mois. Plus qu'un incubateur d'entreprises sociales, ACSE UP, est �galement<b> le plus grand coworking space d'Alg�rie. </b>	j.ferreira@acsedz.com	afric'innov																				
4	1	ActivSpaces		http://activspaces.com/		activspaces	https://www.facebook.com/ActivSpaces		4.1515548	9.23278570000002	Cefam Rd, Buea, Cameroon	Buea	Southwest	Cameroon	ActivSpaces is an open collaboration space, innovation hub and startup incubator for African techies. Established in 2009, ActivSpaces was one of the earliest African coworking spaces to provide free and open access to members actively pursuing technology-based ventures. Based in Buea, Cameroon.  	info@activspaces.com	afrilabs																				
5		Ado Business Incubation Centre - ABIC Hub		https://abicng.org		abicng					Iba Ajie, 1 Tasia Street, ShopRite Junction	Onitsha		Nigeria	The Ado Business Incubation Centre support businesses in Onitsha providing innovative solutions to challenges across our focus areas. Hub Located @IbaajieCenter																						
6		AFP PME		http://www.afppme.bf/			https://web.facebook.com/AfpPme/									direction@afppme.bf	afric'innov																				
7	77	Africa Living Lab 		http://www.unidaf.com/ (use Living Lab link)	x							Dakar		Senegal			worldbank																				
8		Africinnov		https://www.africinnov.com/fr		Africinnov					Dakar, S�n�gal						afric'innov	x																			
9	70	Aiivon innovation hub		https://hub.aiivon.com		AiivonHub			9.0764785	7.39857400000005	Abuja, Nigeria	Abuja	Federal Capital Territory	Nigeria	Aiivon Hub is an innovation hub that is focused on social impact, job creation, skill acquisition, youth engagement and innovation. 		afrilabs																				
10	11	Akendewa		www.akendewa.org	x							Abidjan		Cote D'Ivoire			worldbank																				
11		AKEWA ACCELERATEUR		http://www.akewa.org	x		https://www.facebook.com/akewacroissance/				Cit� Scherko/Angondje commune D&#039;Akanda ,  Libreville				AKEWA est le premier acc�l�rateur et l'un des acteurs de r�f�rence de l'�cosyst�me de l'innovation sociale au Gabon. Engag�s dans la promotion de l'entrepreneuriat social, nous sommes sp�cialis�s dans cinq (05) domaines cl� : les Industrielles culturelles, l�Environnement, les Technologies de l'information et de la communication (TIC), les �nergies renouvelables et l�Agrobusiness.  Encourageant le management collaboratif, nous accompagnons tous types de projets et quel que soit le stade : id�e de cr�ation, d�veloppement, et croissance.  Nous vous proposons une premi�re �tape de consultation 100 % gratuite : accueil, audit du projet, conseils personnalis�s, et aide au montage de dossiers de projet.   Apr�s analyse de votre projet et de ses besoins, nous facilitons le parcours des porteurs de projets et des start-ups qui souhaitent se d�velopper.	agence.akewa@gmail.com	afric'innov																				
12	2	AkiraChix		http://akirachix.com/		akirachix			-0.2849853	36.0693113	Kenyatta Avenue, Nakuru, Kenya	Nakuru	Nakuru County	Kenya	AkiraChix is a not for profit organisation that aims to inspire and develop a successful force of women in technology who will change Africa�s future.		afrilabs																				
13	23	Alexandria Hackerspace		http://www.alexhacker.com/	x							Alexandria		Egypt			worldbank																				
14	79	ALFTech Hub		http://alftechhub.com/	x		https://www.facebook.com/pg/alftechhub/services/		6.6927446	3.23648539999999	Ota, Nigeria	Ota	Ogun State	Nigeria	ALFTech Hub is  an innovation hub that is focused on social impact, job creation, skill acquisition, youth engagement and innovation. 		afrilabs																				
15	104	Altoufikh International							12.1348457	15.0557415000001	N'Djamena, Chad	N'Djamena	N'Djamena	Chad	Altoufikh International is an open space focused on social impact, youth engagement and innovation. 		afrilabs																				
16	3	AMN Coworking Space	x	https://wiki.hackerspaces.org/AMN_Co_Working_Space					5.3553063	-3.96637899999996	E 128, Abidjan, C�te d'Ivoire	Abidjan	R�gion des lagunes	C�te d'Ivoire	AMN Coworking Space focuses on web, design, media and cultural entrepreneurs, leveraging mobile and web solutions to address a business need. Technologists, media professionals, investors and doers are welcomed to the space.		afrilabs																				
17	90	Angel Hub		http://www.angelhub.co.za/								Stellenbosch 		South Africa 			worldbank																				
18		AUC Venture Lab		https://linktr.ee/VLab		aucventurelab						Cairo		Egypt	AUC V-Lab is the first university-based incubator in Egypt. It has been selected among the top five most promising university incubators in Africa in 2014.																						
19	85	BabyLab		http://www.baby-lab.org/		BabyLabCI	http://Guiako OBIN		5.3173556	-4.01906439999993	Abobo Habitat, Q 180	Abidjan	Abidjan	C�te d'Ivoire	BabyLab is an innovation center that is focused on social impact, youth engagement and innovation.	contact@baby-lab.org	afrilabs																				
20		Bamako Incubateur		http://bamako-incubateur.com		BIncubateur	https://www.facebook.com/BIncubateur/				Missira, Mali				Les activit�s de Bamako Incubateur s�articulent autour de six (06) axes :  1.Faciliter la promotion du num�rique aupr�s des enfants, femmes et jeunes en milieu urbain, rural, de la diaspora et migrants ;  2.Faciliter l�int�gration du num�rique dans les secteurs du d�veloppement ;  3.Identifier, faciliter la cr�ation de solution num�rique dans les diff�rents secteurs du d�veloppement ;  4.Identifier et accompagner les innovations num�riques dans les diff�rents secteurs du d�veloppement ;  5.Faciliter l�employabilit� des jeunes notamment de la diaspora et migrants dans le domaine du num�rique ;  6.Faciliter l�acc�s des start up num�riques aux financements.     	bamako.incubateur@gmail.com	afric'innov																				
21	9	BantuHub 		http://www.bantuhub.com/	x							Brazzaville		Congo			worldbank																				
22		BeoogoLAB		http://www.beoogolab.org		BeoogoLAB					Somgand�, Secteur 19, Rue Dima Koon ,  Ouagadougou					info@beoogolab.org	afric'innov																				
23		Bidaya		http://www.bidaya.io		Bidaya_io	https://www.facebook.com/Bidaya.io/				33 bis rue le titien Val fleuri ,  Casablanca				Bidaya est l'incubateur Social Green Tech du Maroc, appartenant au r�seau international d'incubateurs GROUPE SOS Pulse. Implant� � Casablanca depuis 2015, Bidaya a accompagn� plus de 40 startups � fort impact social ou environnemental.         Convaincu de la n�cessit� de construire des mod�les �conomiques innovants pour r�pondre aux <b>d�fis sociaux et environnementaux</b>, Bidaya oeuvre pour l'entrepreneuriat<b> � fort impact</b> � travers 4 p�les d'activit�s : <ul><li>   Bidaya Incub, le programme d'accompagnement g�n�ral d'entreprises en amor�age     Bidaya Funds, le programme d'accompagnement vers le financement d'entreprises ayant valid� leur preuve de concept </li><li>    Bidaya Space, le programme de promotion de l'entrepreneuriat � impact social ou environnemental</li><li>Bidaya Lab, le programme de partage et de valorisation de l'expertise Bidaya&nbsp;</li></ul>	contact@bidaya.io	afric'innov																				
24	46	BitHub		http://bithub.africa/		bithubafrica			-1.3009903	36.8142327	Kenya Road, Nairobi, Kenya	Nairobi	Nairobi County	Kenya	BitHub Africa is a commercial Blockchain Accelerator that is driving the adoption of blockchain technology and solutions across Africa.		afrilabs																				
25	82	Black Girls Code		http://www.blackgirlscode.com/		blackgirlscode						Johannesburg		South Africa			worldbank																				
26		Bond innov		http://www.bondinnov.com/		Bondinnov	https://www.facebook.com/incubateurbondinnov/				32 Avenue Henri Varagnat, Bondy, France				   Notre exp�rience dans l'accompagnement de projets innovants nous permet de s�lectionner et de suivre avec soin des projets de qualit� gr�ce � une �quipe d'accompagnement d�di�e, des locaux � disposition des entrepreneurs, un r�seau actif en France et en Afrique, des formations collectives, un p�le d'experts, et de nombreux autres services !	contact@bondinnov.com	afric'innov																				
27	4	BongoHive		http://bongohive.co.zm/		bongohive			-15.4186552	28.3099678	Haile Selassie Ave, Lusaka, Zambia	Lusaka	Lusaka Province	Zambia	BongoHive, based in Lusaka, Zambia, provides a place for the local tech community to meet, swap experiences, and attend training, networking and hackathon events. 		afrilabs																				
28	4	Botswana Innovation Hub		http://www.bih.co.bw/		YourBIH						Gaborone		Botswana			worldbank																				
29		BujaHub		http://www.bujahub.com	x		https://www.facebook.com/bujahub/				Boulevard De La Liberte, Bujumbura, Burundi					info@bujahub.com	afric'innov																				
30	44	Buni Lab		http://buni.or.tz/	x	bunihub			-6.369028	34.888822	Tanzania			Tanzania	Buni is a technology hub that fosters innovation and technology entrepreneurship through capacity building & mentoring programs.  		afrilabs																				
31	45	C4DLab		https://c4dlab.ac.ke/		C4DLab			-0.023559	37.906193	Kenya			Kenya	C4DLab is a research & development, prototyping and innovation startup incubation lab housed at the School of Computing & Informatics.  		afrilabs																				
32	69	Cairo Hackerspace		https://cairohackerspace.org/					30.0444196	31.2357116000001	Cairo, Egypt	Cairo	Cairo Governorate	Egypt	Cairo Hackerspace is an innovation hub that focuses on social impact and innovation.   		afrilabs																				
33	92	Cape Innovation and Technology Initiative (CITI)		http://www.citi.org.za/		Cape_IT						Cape Town		South Africa 			worldbank																				
34	81	Capetown Garage		www.capetowngarage.com		capetowngarage						Cape Town		South Africa			worldbank																				
35	59	Centre d'innovation de Lubumbashi Democratic Republic of Congo		http://cinolu.org/CIL/			http://www.facebook.com/cinolu		0.4990124	29.4527538	Beni, North-Kivu, Democratic Republic of the Congo	Beni	North-Kivu	Democratic Republic of the Congo	Centre d'innovation de Lubumbashi Democratic Republic of Congo	reception@cinolu.org	afrilabs																				
36		CENTRE D�AFFAIRES REGIONAL ANOSY		http://www.cara.mg							Kathyana Car Rental - Bazaribe Fort Dauphin, Fort-Dauphin, Madagascar				cara.anosy@gmail.com	afric'innov																					
37	63	Centre Swahilipot hub							0.5157743	35.2747495	Kenyatta Street, Eldoret, Kenya	Eldoret	Uasin Gishu County	Kenya	CentreSwahilipot hub		afrilabs																				
38		CEPEM Couveuse d�Entreprise pour la Promotion de l�Emploi par la Micro-entreprise 		https://www.cepem.sn		cepemcouveuse	https://web.facebook.com/cepemsn				3 Rue Amadou Assane Ndoye X b�ranger Ferraud ,  Dakar			contact@cepem.sn	afric'innov																						
39		Cied					https://web.facebook.com/AccompagnementCIED/				Abidjan, C�te-d&#039;Ivoire, Abidjan, C�te d&#039;Ivoire						afric'innov																				
40	34	CIPMEN		http://www.cipmen.org		Cipmen	https://www.facebook.com/incubateurCIPMEN/		17.607789	8.08166600000004	Niamey			Niger	Le CIPMEN travaille aussi � faciliter l�internationalisation des entreprises nig�riennes. En effet, le centre incubateur nig�rien a initi� le consortium SahelInnov dans l�objectif d�am�liorer la coop�ration entre les incubateurs de la sous-r�gion et permettre la structuration du march� sah�lien.           Lanc� en avril 2014, le Centre incubateur des PME du Niger est une association � but non lucratif soutenue par l�Etat nig�rien et re�oit des financements priv�s.	contact@cipmen.org	afrilabs																				
41	96	Civic Foundation for Innovation		https://civicfoundationforinnovation.org/					9.0764785	7.39857400000005	Abuja, Nigeria	Abuja	Federal Capital Territory	Nigeria	Civic Innovation hub is a co-creation space and innovation center that is focused on social impact, youth engagement and innovation. 	Info@civicfoundationforinnovation.org	afrilabs																				
42	61	Co-creation Hub		www.cchubnigeria.com		Cc_HUB						Lagos		Nigeria			worldbank																				
43	89	Codebridge		www.codebridge.co.za/		codebridge						Cape Town		South Africa 			worldbank																				
44	94	CodedinBraam		http://www.meetup.com/CodedInBraam/								Johannesburg		South Africa 			worldbank																				
45	89	CoLab		https://colab.com.ng/		CoLab_kd			10.4548808	7.4056928	kaduna South, Kaduna, Nigeria	Kaduna	Kaduna	Nigeria	CoLabs is a co-creation space, incubator/accelerator and an innovation space that focuses on skill acquisition, social impact and innovation. 		afrilabs																				
46		Comores Coworking		http://www.comorescoworking.com		comwork_km	http://Com&#039	Work				Boulevard Karthala, Moroni, Comores				contact@comorescoworking.com	afric'innov																				
47		Congo Business Network		http://www.congobusinessnetwork.org		CongoBizNetwork					Concession Procoki, avenue de L&#039;OUA, Kinshasa, Democratic Republic of the Congo						afric'innov																				
48		CONNECT�INNOV		https://connect-innov.com/											contact@connect-innov.com	afric'innov																					
49		Couveuse PAPRICAI / Association Heinrich Klose		http://couveuse-papricai.org/		papricai	https://www.facebook.com/papricai/				Lom�, quartier Av�dji, Carrefour Margot, Lom�, Togo				En 2014, l�Association Heinrich Klose lance la couveuse PAPRICAI, Plateforme pour l�Aide aux Projets et Initiatives de Cr�ation d�Activit�s Innovantes, pour r�pondre aux besoins de structuration des fili�res industrielles du secteur culturel et cr�atif.Dans la perspective de d�velopper un environnement de travail propice aux professionnels du secteur culturel et cr�atif, l�Association Heinrich Klose a d�velopp� un dispositif d�accompagnement global favorisant synergies, mise en r�seau et �changes interdisciplinaires. Ainsi est n� le dispositif EDOU, outil de d�veloppement de connaissances et de comp�tences sur l�entreprenariat culturel et cr�atif. EDOU est lanc� en septembre 2016 et se d�cline en six (06) volets : espaces de r�sidences et de cr�ations, �quipements bureautiques mutualis�s, espace coworking, h�bergements physiques modulables et juridique, salle de formations s�minaires, micro-cr�dit (fonds de d�veloppement de l�entrepreneuriat cr�atif).	contact@couveuse-papricai.org	afric'innov																				
50		Cowork.Africa		Co-work.africa		coworkafrica						Douala		Cameroon	�Premium co-working space in Douala.�																						
51		CREATEAM		https://www.createam.ml/		createam2015	https://web.facebook.com/Lincubateur-Createam-927943447313058/?_rdc=1&amp	_rdr								contact@createam.ml	afric'innov																				
52		Creative Hub Ethiopia		https://creativehub.et/		creativehubet									Creative Hub Ethiopia supports creative innovators, designers, and SMEs in various fields by deepening understanding of global design and industrial concepts.																						
53	5	CTIC Dakar		http://www.cticdakar.com/fr/		cticdakar	https://www.facebook.com/cticdakar/		14.6691984	-17.4306432	Rue Berenger Feraud, Dakar, Senegal	Dakar		Senegal	CTIC Dakar is the first incubator and accelerator devoted to IT entrepreneurs in Francophone Sub-Saharan Africa. Registered as a non-profit, CTIC is an entrepreneurial public-private partnership initiated by the private sector and supported by the government of Senegal, the World Bank / infoDev, GIZ, the Center for Enterprise Development of the EU and Orange (leading telco in West Africa). 	contact@cticdakar.com	afrilabs																				
54		CUBE		http://www.cubenter.com	x	cube_togo	https://www.facebook.com/SAEICUBE/				BP 4556, togo				L'accent est mis sur les projets dans les biotechnologies (Agriculture et transformation agroalimentaire, solutions innovantes en biotechnologies m�dicales, environnementales et industrielles). Toutefois nous sommes pr�ts � accompagner d'autres projets si le volet innovation est prouv� (Inclusion financi�re, �nergie, services de base) et qui r�pondent � un probl�me identifi� dans la communaut�.	equipecube@gmail.com	afric'innov																				
55	70	Cyclotron R?union Indian Ocean (CYROI GIP)		http://www.cyroi.fr/category/pepiniere-entreprise/								Saint Denis 		Reunion			worldbank																				
56		Design Hub Kampala		https://designhubkampala.com/							Plot 3 Bata Close, 5th Street Industrial Area PO Box 7381,	Kampala		Uganda	Design Hub Kampala is a co-creation and co-working space in Kampala. The 2000 sqm renovated warehouse is a collaborative work environment where entrepreneurs, freelancers, designers, writers, product developers, marketing minds, tech start-ups, and makers and companies can feel comfortable working on their own projects, while having the possibility of sharing, engaging and working with other like-minded creatives. At the same time, our mission is to show the economic value of creativity and �design thinking� and provide an entry point for international market opportunities. 																						
57	102	Diaspo Hub					https://www.facebook.com/DiaspoHub/	https://ng.linkedin.com/company/ddhubng	12.6250651	-7.98821799999996	Ambassade d'Allemagne, Rue 14	Bamako	District de Bamako	Mali	Diaspo Hub is an incubator and accelerator  that are focused on skill acquisition, social impact and innovation.	secretariat@diaspohub.com	afrilabs																				
58	86	Digital Development Hub		https://ddhub.org.ng	x			https://ng.linkedin.com/company/ddhubng	12.0049303	8.51169030000006	Kano City, Kano, Nigeria	Kano	Kano	Nigeria	Digital Hub is a co-working space, incubation/acceleration and an innovation center that focuses on social impact, skill acquisition and job creation. 		afrilabs																				
59		Dira Partners		http://www.dirapartners.com							80 R�sidences Hacienda, dakar , S�n�gal					contact@dirapartners.com	afric'innov																				
60	43	dLab		http://www.dlab.or.tz/		dlabtz			-6.8234286	39.2680669	Tanzania Breweries, Msimbazi Street, Dar es Salaam, Tanzania	Dar es Salaam		Tanzania	dLab began operations in March, 2016 and was legally registered in the same month with a current staff strength of 35.  		afrilabs																				
61		DLCOWORKING (DLC)		http://www.dlcoworking.com		dlcoworking	https://www.facebook.com/DLCoworking-201097337076733/				Av Kawar, Derri�re maternit� Yantala ,  Niamey					contact@dlcoworking.com	afric'innov																				
62	81	DoniLab		http://www.donilab.net/	x		https://www.facebook.com/donilab.officiel/		12.6363899	-7.99483789999999	SOTUBA	Bamako	District de Bamako	Mali	DoniLab is an innovation hub that is focused on social impact, job creation and innovation.	info@donilab.net	afrilabs																				
63	105	DTBI-Dar Tekinohama Business Incubator 		http://www.teknohama.or.tz/								Dar es Salaam		Tanzania			worldbank																				
64	52	Ebene Accelerator		http://ebeneaccelerator.mu		ebn_accelerator						Ebene Cybercity		Mauritius			worldbank																				
65		ECOLIA Labs		http://ecolialabs.org		ecolialabs	https://www.facebook.com/EcoliaLabs/				Ecolia Labs, Unnamed Rd, Yaound�, Cameroun				� travers cet incubateur, nous aidons les Jeunes et les Femmes � s�approprier le potentiel innovant des technologies modernes afin de stimuler leur cr�ativit�, et utiliser le num�rique pour proposer des solutions innovantes et frugales aux probl�mes de notre soci�t�.	contact@ecolialabs.org	afric'innov																				
66	62	Eldo Hub Innovation		https://www.eldohub.co.ke/		eldohub			-0.2849853	36.0693113	Kenyatta Avenue, Nakuru, Kenya	Nakuru	Nakuru County	Kenya	Eldo Hub Innovation		afrilabs																				
67		Emergence Capital / DiaspoLab		http://www.emergence.africa							167 avenue Lamine Gu�ye x Place Soweto Immeuble Rivonia Tower 11�me �tage, Dakar-S�n�gal			<b></b><b></b>	ncamara@emergence.africa	afric'innov																					
68		Energy Generation		https://www.energy-generation.org/		EnergyGenAfrica	https://www.facebook.com/EnergyGeneration				H�dzranawo�, 2e Arrondissement, Lom� (Awoudja) Lom�, Togo,  Lom�				Energy Generation est une organisation panafricaine qui encourage les jeunes Africains � relever les d�fis les plus pressants de leur g�n�ration (�nergie, agriculture, sant�, etc.) � travers l'entrepreneuriat et la technologie.     <br>Energy Generation vise � soutenir et � promouvoir les innovations technologiques et entrepreneuriales afin d'identifier, de d�velopper et de diffuser largement les solutions pratiques � made in Africa �.     <br><br>Mais avant tout, Energy Generation est une plate-forme centr�e sur l'humain qui offre aux individus des possibilit�s de lib�rer et d�exprimer toute leur cr�ativit�.<br>	contact@energy-generation.org	afric'innov																				
69	67	Enspire Incubator		http://enspire.org.ng/wp/about-us/								Abuja		Nigeria			worldbank																				
70	6	enspire Incubator		http://www.enspire.org.ng/		enspireatv			9.0764785	7.39857400000005	Abuja, Federal Capital Territory, Nigeria	Abuja	Federal Capital Territory	Nigeria	enspire is amongst the major initiatives of Abuja Technology Village Free Zone Company (ATV). It seeks to stimulate economic growth and sustainable job creation in Nigeria through innovation, entrepreneurship, enterprise development and technology commercialization by providing training, mentoring, networking opportunities, infrastructure and access to finance among others. 		afrilabs																				
71	7	EtriLabs		http://www.etrilabs.com/		EtriLabs	https://www.facebook.com/etrilabscotonou/		6.3628451	2.42312849999996	Rue 403, Cotonou, Benin	Cotonou	Littoral Department	Benin	EtriLabs is the first and only technology hub in Cotonou (Benin). It offers co-working, start-up incubation, training and outsourcing services. With a particular focus on economic development, EtriLabs helps NGOs, businesses and government use technology to achieve their goals. Local developers and entrepreneurs gravitate around the hub for resources and opportunities. 		afrilabs																				
72		Expert Labs Mali		http://www.expertlabsmali.com	x		https://www.facebook.com/ExpertLabsBamako/?ref=bookmarks				Bamako, Mali			Offrir des opportunit�s de d�veloppement �conomique aux jeunes maliens � travers le secteur priv�  La cr�ation d�un bon environnement de d�veloppement des entreprises jeunes au Mali  La facilitation de l�interconnexion des entrepreneurs au Mali et dans le monde   	expertlabsmali@gmail.com	afric'innov																					
73	20	Fab Lab Egypt		http://fablab-egypt.com/								Cairo		Egypt			worldbank																				
74	46	FabLab Nairobi		www.fablab.uonbi.or.ke/#		fablabnairobi						Nairobi		Kenya			worldbank																				
75	59	Fablab Namibia		http://www.fablabnamibia.org/								Windhoek		Namibia			worldbank																				
76		FACTORY 619		https://factory619.com	x		https://www.facebook.com/factory619									hedi@factory319.com	afric'innov																				
77	18	Flat6Labs		http://www.flat6labs.com		Flat6LabsFR						Cairo		Egypt			worldbank																				
78	66	Focus Hub		http://focushub.net/	x							Port Harcourt		Nigeria			worldbank																				
79	68	Founders Hub		http://foundershub.xyz/holder/		foundershubng			8.9847995	4.56244259999994	Kwara, Nigeria		Kwara	Nigeria	Founders Hub is an innovation hub that is focused on skill acquisition, youth engagement and innovation.		afrilabs																				
80	32	Ghana Multimedia Incubator Centre		http://gmic.gov.gh/	x							Accra		Ghana			worldbank																				
81		Ghiyada Africa		http://www.ghiyadaafrica.org	x		https://www.facebook.com/ghiyadaafrica/				adidogome la pampa ,  lom�					ghiyadaafrica@gmail.com	afric'innov																				
82	55	Girls in Tech (GIT)-Morocco Chapter		http://morocco.girlsintech.org/		girlsintech						Casablanca		Morocco			worldbank																				
83	112	Grameen Foundation AppLab		http://grameen.skipso.us/en/page/grameen-foundation-applab-in-action								Kampala		Uganda			worldbank																				
84	80	Green Innovation Hub (GiHUB)		http://www.gih.space/	x		https://www.facebook.com/GiHUBZim/		-17.8251657	31.03351	Harare, Zimbabwe	Harare	Harare Province	Zimbabwe	GiHUB is an innovation hub that is focused on social impact, job creation and innovation and get most of their funds from Africa. 		afrilabs																				
85	86	Grindstone									E5B Century Square Century City Cape Town	Cape Town	Western Cape South Africa	South Africa			worldbank																				
86		Groupe ISM		https://www.ismincub.com/			https://fr-fr.facebook.com/GroupeISM/									incubateurs@ism.edu.sn	afric'innov																				
87	39	GrowthHub		http://www.thegrowthhub.com/	x							Nairobi		Kenya			worldbank																				
88	30	gSpace		http://gspace.addhen.org/								Accra		Ghana			worldbank																				
89		Guerra Tech Hub		https://guerrahub.com		guerra_hub	https://www.facebook.com/GuerraHub				Banikanni, rue de la pharmacie du Campus ,  Parakou				Avec Guerra, nous souhaitons d�velopper une communaut�, un p�le social, durable, multiculturel et interg�n�rationnel autour des enjeux du num�rique. A cet effet, nous avons mis en place 3 grands programmes de d�veloppement et offrons de multiples services pour soutenir notre communaut� technologique.	contact@guerrahub.com	afric'innov																				
90	8	Habaka					https://web.facebook.com/habakamg?_rdr		-18.9078944	47.5287605	Lalana Rainandriamampandry, Antananarivo, Antananarivo Province, Madagascar	Antananarivo	Antananarivo Province	Madagascar	Habaka is a technology innovation space that brings together academicians, the private sector and investors to support the tech community and entrepreneurship. Its ambition is to hack local problems with ingenious technology solutions. 		afrilabs																				
91		Hadina Rimtic		http://www.hadinarimtic.com	x	HadinaRIMTIC	https://www.facebook.com/hadinarimtic/about/?ref=page_internal				Nouakchott, Nouakchott, Mauritanie					contact@hadinarimtic.com	afric'innov																				
92	23	Hapa Space		http://www.haspace.com/	x				6.6934285	-1.61401030000002	Kumasi Ghana @ 50 Jubilee Park, Kumasi, Ghana	Kumasi	Ashanti Region	Ghana	Hapaweb Solutions is an Information Technology (IT) company based in Kumasi, Ghana. As an IT company the focus is centred on the application of information technology both within the business and individual context. The core areas of operation within the IT industry are in the areas of Web and Mobile applications. 		afrilabs																				
93	28	Hive Colab		http://hivecolab.org/		hivecolab			0.3355622	32.582343	Uganda National Museum, Kampala, Uganda	Kampala	Central Region	Uganda	The Hive Colab is a community-owned, collaborative and co-working space for Uganda�s technology based community		afrilabs																				
94	100	Honode Hub		https://honode.org/		Honodehub			6.2330852	0.996561700000029	Ho - Denu Road, Dzodze, Ghana	Dzodze	Volta Region	Ghana	Honode Hub is an incubator and accelerator  that are focused on skill acquisition, job creation and innovation.  		afrilabs																				
95	36	Hub Accra		www.hubaccra.com		impacthubaccra						Accra		Ghana			worldbank																				
96	116	Hypercube Hub		http://www.hypercubehub.co/en		hypercubehub						Harare		Zimbabwe			worldbank																				
97	50	I-Hub Malagasy		http://www.i-hub.mg/								Antananarivo		Madagascar			worldbank																				
98		I&F Entrepreneuriat		http://ifentrepreneuriat.org/	x						23, Avenue Kolo, Quartier Noki, Mbanza-Ngungu, Bas-Congo, RD Congo				I&Fentrepreneuriat est riche d�une exp�rience de 10 ans (2007 � 2017) dans l�accompagnement par incubation d�entreprise. Il est le premier incubateur d�entreprises en R�publique D�mocratique du Congo.   I&Fentrepreneuriat est riche d�au-moins 148 entreprises dont 30 cr��es par des jeunes de moins de 25 ans exer�ant pour 80% dans l�agroalimentaire, 5% dans la haute technologie, 5% dans la production des mat�riaux de construction et 10% dans les technologies de l�information et la communication.   Ces entreprises sont riches de 86 produits innovants. I&Fentrepreneuriat compte 25 coaches tr�s jeunes.   I&Fentrepreneuriat a d�velopp� une p�dagogie d�accompagnement bas�e sur le mod�le TCC-GRP pour aider ses porteurs de projets � cr�er leurs entreprises.    	contact@ifentrepreneuriat.org	afric'innov																				
99	44	iBiz Africa		http://www.ibizafrica.co.ke/		iBizAfrica						Nairobi		Kenya			worldbank																				
100	40	iBridge		http://www.ibridgehub.com/	x				9.081999	8.67527700000005	Nigeria			Nigeria	iBridge began operation in October, 2012 and was legally registered in the same year. It is a co-creation hub that focuses on skill acquisition, social impact and innovation.		afrilabs																				
101		iCampus Liberia		https://www.icampus.io/		icampuslib						Monrovia		Liberia	A shared innovation, co-working and community space for organizations focusing on the intersection of ICTs, entrepreneurship & social change in Liberia.																						
102	9	Ice Addis		https://www.iceaddis.com/		iceaddis			9.0118214	38.7328845	Chad St, Addis Ababa, Ethiopia	Addis Ababa	Addis Ababa	Ethiopia	iceaddis is a self-sufficient business incubation and innovation community center aimed at supporting Ethiopia�s economic growth by tightening the constructive interaction between researchers, developers, entrepreneurs, creative workers and customers and by promoting local technological solutions and solution providers to the public.   		afrilabs																				
103	56	Ice Alex		http://icealex.com/		icealexHub			30.7622959	29.6962677	Alexandria Governorate, Egypt		Alexandria Governorate	Egypt	Ice Alex is an ever-growing international network of hubs and nodes in Cairo & Alexandria (Egypt), Addis Ababa (Ethiopia) and Weimar (Germany). 	info@icealex.com	afrilabs																				
104	19	IceCairo		http://icecairo.com/								Cairo		Egypt			worldbank																				
105	67	iCODE		http://icodegh.com/		icodeteam			4.9028537	-1.79162220000001	Apollo, Takoradi, Ghana	Takoradi	Western Region	Ghana	iCODE is an innovation hub that is focused on skill acquisition, youth engagement and innovation.  		afrilabs																				
106	35	iDEA Hub		http://www.idea-nigeria.org/	x				9.081999	8.67527700000005	Nigeria			Nigeria	iDEA (Information Technology Developers Entrepreneurship Accelerator) provides essential support to entrepreneurs to build software skills.  		afrilabs																				
107	47	iHub		https://ihub.co.ke/		iHub			-0.023559	37.906193	Kenya			Kenya	iHub is Nairobi�s innovation hub for the technology community and serve as an open space for the technologists, investors, tech companies and hackers   		afrilabs																				
108	29	iLab Africa		http://www.ilabafrica.ac.ke/		ilabafrica			-1.2882626	36.8137592000001	Kenyatta Avenue, Nairobi, Kenya	Nairobi	Nairobi County	Kenya	@iLabAfrica is a research centre under the Faculty of Information Technology at Strathmore University established to spearhead ICT research.		afrilabs																				
109	10	iLab Liberia		http://ilabliberia.org/		iLabLiberia			6.306069	-10.7988739	Camp Johnson Rd, Monrovia, Liberia	Monrovia	Montserrado	Liberia	iLab Liberia is a non-profit computer laboratory providing access to cutting-edge technology, expert IT assistance and a community leveraging technology for the good of Liberia. iLab offers free trainings in contextually relevant ICTs that are open to the public. iLab also hosts tech events and serves as a meet-up space for a range of tech enthusiasts and professionals. 		afrilabs																				
110	15	Imani Hub		http://www.imanihub.net/	x							Kinshasa		DRC			worldbank																				
111		IMMEDIATE CONSULTING & Cle Sarl		http://www.immediate-consulting.org		immediateconsu1	https://www.facebook.com/immediateconsulting/				89, avenue KANKONTWE, BEL&#039;AIR, KAMPEMBA ,				info@immediate-consulting.com	afric'innov																					
112	88	Impact Amplifier		https://www.impactamplifier.co.za/		ImpactAmplifier						Johannesburg		South Africa 			worldbank																				
113	99	IMPACT HUB 		johannesburg.impacthub.net		ImpactHub						Johannesburg		South Africa 			worldbank																				
114	75	Impact Hub Bamako		https://the-hub.company/		ImpactHubBKO	https://www.facebook.com/ImpactHubBamako		12.6392316	-8.00288920000003	Hamdallaye ACI 2000	Bamako	Bamako Capital District	Mali	Impact Hub Bamako is an innovation hub that is focused on job creation, youth engagement and innovation	bamako.info@impact.net	afrilabs																				
115		IMPACT, L'incubateur				IMPACT_LabESS									L'incubateur IMPACT d�tecte, h�berge et accompagne des entreprises sociales tunisiennes.																						
116	1	INAPEM--Angolan Institute of Support for Micro, Small and Medium Enterprises 		http://www.portal.inapem.gov.ao/								Luanda		Angola			worldbank																				
117		Incub�ivoir 		http://incubivoir.net/		ivoirincub	https://www.facebook.com/incubivoir1/				zone 3 rue des carrossiers Bo�te Postale 10 Bp 1041 Abidjan 10				incubinfo@caamonde.org	afric'innov																					
118		Incubateur Ose Ton Emploi		http://www.osetonemploi.com		osetonemploi	http://@OseTonEmploi				Conakry, Guin�e				       Notre objectif est de contribuer � inverser la tendance pour que des jeunes traditionnellement chercheurs d�emploi deviennent des entrepreneurs innovants, des cr�ateurs d�emplois via la cr�ation d�entreprises p�rennes et � forte valeur ajout�e.	contact@osetonemploi.com	afric'innov																				
119		INCUBATEUR RSE BENIN						https://www.linkedin.com/company/groupe-de-travail-rse-b%C3%A9nin/			lot P1430 v�doko ,  Cotonou						afric'innov																				
120		Incubateur UGB		http://incubation.ugb.sn			https://web.facebook.com/incubateurugb/				Sanar, Saint-Louis, Saint-Louis, S�n�gal					incubateur@ugb.edu.sn	afric'innov																				
121	55	inCUBE8		https://www.incube8mw.com/	x		https://www.facebook.com/incube8mw/		-13.254308	34.301525	Malawi			Malawi	inCUBE8 Malawi began operation in February, 2016 and was officially registered on the same day. They are an innovation hub that run incubation and acceleration programmes targeted at youth engagement and job creation.  		afrilabs																				
122	101	Incubme Algeria		www.incubme.com			https://www.facebook.com/IncubMeDz/		28.033886	1.659626	Algeria			Algeria	Incubme is an incubator and accelerator  that are focused on skill acquisition, job creation and innovation.		afrilabs																				
123		INCUBONS					https://fr-fr.facebook.com/incubons/				VP 27 A bis Ambohimiandra ,  Antananarivo				 �Un cabinet d�expertise � destination de toutes les organisations promouvant l�entrepreneuriat des jeunes et des femmes � Madagascar, dans l�Oc�an Indien et en Afrique.&nbsp;	incubons.etc@gmail.com	afric'innov																				
124	94	Injini		http://injini.co.za/		injiniedtech			-33.9248685	18.4240553	Cape Town, South Africa	Cape Town	Western Cape	South Africa	Injini is an incubator and accelerator that is focused on social impact, job creation and innovation. 	info@injini.africa	afrilabs																				
125		Innov�up		http://innovup.fefa.tg/			https://www.facebook.com/centreInnovupTogo/				innovup, Avenue Du 24 Janvier, Lom�, Togo			"Pour en savoir plus visitez notre site <a href=""http://innovup.fefa.tg"">http://innovup.fefa.tg</a>�"	innovup@fefa-togo.org	afric'innov																					
126	87	Innovate Ventures		https://www.innovate.so/					9.562389	44.0770133999999	Hargeisa, Somalia	Hargeisa	Woqooyi Galbeed	Somalia	Innovate Ventures is an open space, co-working space, incubation/acceleration and an innovation center that focuses on job creation, social impact and innovation.		afrilabs																				
127	76	Innovation Growth Hub		https://ighub.com.ng/		theighubafrica			5.4308921	7.5247243	Abia, Nigeria		Abia	Nigeria	Innovation Growth Hub is an innovation hub that is focused on job creation, skill acquisition and innovation. 		afrilabs																				
128	101	Invo Tech incubator		www.invotech.dut.ac.za	not hub website							Durban		South Africa 			worldbank																				
129	98	Iris Hub		https://www.irishub.rw/		irishub_rw			-1.9705786	30.1044288000001	Kigali, Rwanda	Kigali	Kigali City	Rwanda	Iris Hub is an incubator and accelerator focused on job creation, youth engagement and innovation. 		afrilabs																				
130	60	iRise Somalia		https://irisehub.so/en/		iRiseHub			5.152149	46.199616	Somalia			Somalia	iRise Somalia		afrilabs																				
131	36	iSpace		http://ispacegh.com/		iSpaceGh			5.5712984	-0.146848299999988	Ghana International Trade Fair Centre, Accra, Ghana	Accra	Greater Accra Region	Ghana	The iSpace Foundation is a coworking tech and creative innovation space for startups, innovators, social entrepreneurs & developers..  	info@ispacegh.com	afrilabs																				
132		ISTIC Entreprises Startup		http://www.istic.rnu.tn		istic_tunisie	http://ISTIC Entreprises Startup				Technopole Ecopark Borj-c�dria, Borj C�dria, Tunisie				ISTIC Entreprises Startup se propose comme une passerelle entre le monde universitaire et le monde socio-�conomique.  		afric'innov																				
133	37	IT Kola					https://www.facebook.com/itkola?_rdc=1&_rdr		7.369722	12.354722	Cameroon			Cameroon	IT Kola stands for innovation and use of sustainable technologies for Africa. It is a collaborative platform where ideas, inspiration & commitment  		afrilabs																				
134	103	iZone Hub		https://izonehub.org.zw/		izonehub	https://www.facebook.com/izonehub/		-17.8118106	31.0895029000001	Zimbabwe Cricket, Maiden Drive, Harare, Zimbabwe	Harare	Harare Province	Zimbabwe	iZone Hub is an incubator and accelerator that are focused on skill acquisition, job creation and innovation.		afrilabs																				
135		JA Gabon		https://www.jagabon.org/		ja_gabon	https://www.facebook.com/Juniorachievementgabon/				JA Gabon, Libreville, Gabon					info@jagabon.org	afric'innov																				
136		JABA SPACE		https://jabaspace.co/		JabaSpace	https://www.facebook.com/jabaspacecoworking/									hello@jabaspace.co	afric'innov																				
137	79	Jiguene Tech Hub		http://jjiguenetech.com/	x							Dakar		Senegal			worldbank																				
138	14	Jokkolabs Abidjan		http://jokkolabs.net/en/#jokkolabs		JklAbidjan						Abidjan		C?te d?Ivoire			worldbank																				
139		Jokkolabs Bamako		http://www.jokkolabs.net/Bamako		JklBamako					Torokorobougou ,  Bamako				<b>Pionnier de l�innovation ouverte, de la transformation digitale et de l�entrepreneuriat social en Afrique, Jokkolabs �uvre � la structuration d�un �cosyst�me o� s�op�rent des dynamiques collaboratives porteuses de changement.</b>		afric'innov																				
140	26	Jokkolabs Banjul		http://jokkolabs.net		JklBanjul						Banjul 		Gambia			worldbank																				
141	53	Jokkolabs Casablanca		http://jokkolabs.net		JklCasa						Casablanca		Morocco			worldbank																				
142	3	Jokkolabs Cotonou		http://jokkolabs.net	JklCotonou	JklCotonou						Cotonou		Benin	Coworkingspace et action tank qui recherche des approches innovantes li�es aux nouvelles technologies pour r�pondre aux enjeux sociaux-�conomiques de ce si�cle.		worldbank																				
143		Jokkolabs Dakar		https://www.jokkolabs.net/senegal/dakar		JklDakar	https://www.facebook.com/jokkolabsDakar/				Sacr� C�ur 3 villa 9653 dakar				Initiative priv�e � but non lucratif, Jokkolabs ouvre en 2010 l�un des premiers espaces d�innovation du continent Africain parmi 700 pionniers, � l��chelle mondiale, pour entreprendre autrement. Jokkolabs est aujourd�hui un �cosyst�me de l�innovation ouverte, actif en France ( Nanterre et Marseille) et dans 8 pays africains (B�nin, Burkina Faso, Cameroun, C�te d�Ivoire, Mali, Maroc, Gambie et S�n�gal).Jokkolabs est un r�seau d�espaces d�innovation, un environnement unique o� plus de 400 entrepreneurs, cr�atifs et innovateurs d�veloppent leurs activit�s.Jokkolabs est une communaut� d�entrepreneurs partageant des valeurs d�ouverture et de collaboration. Nous offrons un cadre de qualit� o� ils travaillent, se rencontrent, collaborent, apprennent et s�amusent au sein d�un large r�seau virtuel de plus de 10 000 membres. Jokkolabs est un action tank ��ind�pendant�� qui recherche des approches innovantes li�es � l��conomie num�rique pour r�pondre aux enjeux sociaux �conomique du 21i�me si�cle.	contact@jokkolabs.co	afric'innov																				
144		Jokkolabs Douala		http://jokkolabs.net		JklDouala	https://www.facebook.com/JokkolabsDouala																														
145		Jokkolabs Niamey				JokkolabsNiamey																															
146	7	Jokkolabs Ouagadougou		http://ouaga.jokkolabs.net/		JklOuaga						Ouagadougou		Burkina Faso			worldbank																				
147	11	JoziHub		http://jozihub.org/		JoziHub			-26.1934093	27.9849379	South Africa Islam, Johannesburg, Gauteng, South Africa	Johannesburg	Gauteng	South Africa	JoziHub is a co-creation space in Johannesburg dedicated to creating sustainable change in Africa 44 Stanley Ave, Milpark, Johannesburg, 2092, South Africa. 	info@jozihub.org	afrilabs																				
148		KhulaTech		http://www.khulatech.com		khulatech	http://www.facebook.com/khulatech				Cotonou B�nin, Vedoko, von funai, immeuble MTN ,  Cotonou					contact@khulatech.com	afric'innov																				
149	97	Kianda Hub		https://kiandahub.com/		KiandaHUB			-8.8249255	13.2279833	ANGOLA LNG, Rua Am�lcar Cabral, Luanda, Angola	Luanda	Luanda	Angola	Kianda Hub is an open space, coworking, co creation space and innovation center that focuses on social impact, job creation and innovation. 		afrilabs																				
150	103	Kinu Innovation and Co-Creation Space		http://www.kinu.co.tz/								Dar es Salaam		Tanzania			worldbank																				
151	99	Kivu Hub		https://kivuhub.net/		kivuhub			-4.3919893	15.3127824000001	Bukavu, Kinshasa, Congo-Kinshasa	Kinshasa	Kinshasa	Democratic Republic of the Congo	Kivu Hub is an incubator and accelerator that are focused on social impact, job creation and innovation. 		afrilabs																				
152	48	kLab		http://klab.rw/		klabrw			-1.940278	29.873888	Rwanda			Rwanda	kLab (knowledge Lab) is a unique open technology hub in Kigali where students, entrepreneurs and innovators come to work.  		afrilabs																				
153		KMRSTART-UP HUB				kmrstartuphub																															
154		Kobo hub		http://www.kobo-hub.com		kobo_hub	http://facebook.com/kobohubrdc				Immeuble 130, avenue Kwango, Kinshasa (Ref: INA)				Kobo Hub est une plateforme congolaise d�di�e � l�acc�l�ration de startups et de jeunes entreprises en R�publique D�mocratique du Congo.  Kobo Hub participe � la formation et au mentorat de startups pour les aider � grandir.  Nous accompagnons les porteurs de projets en mettant � leur disposition un r�seau d�experts pluridisciplinaires, un acc�s aux comp�tences, aux ressources et aux infrastructures indispensables au succ�s et � la croissance de leurs projets.	secretariat@kobo-hub.com	afric'innov																				
155		Kufanya		https://www.facebook.com/kufanyaincub/			https://www.facebook.com/kufanyaincub/				Rue Mongi Bali, Sfax, Tunisie				<b>  Kufanya </b>est un partenaire d�impl�mentation de l�organisation international pour les migrations, de l�institut fran�ais, de l�ONG Tunisie terre d�asile. Nous sommes membre de reseau de promotion de l�entreprise sociale chabaka et partenaire de l�incubateur pour entreprise sociale en tunisie lab�ess.   	africabusinessleaders@gmail.com	afric'innov																				
156	34	Kumasi Business Incubator					https://www.facebook.com/pages/Kumasi-Business-Incubator-KBI/813845328668356					Kumasi		Ghana			worldbank																				
157	61	Kumasi Hive		https://kumasihive.com		KumasiHive			7.946527	-1.02319399999999	Ghana			Ghana	Kumasi Hive	info@kumasihive.com	afrilabs																				
158	60	L5 Lab		http://www.l5lab.com/		L5Lab						Lagos		Nigeria			worldbank																				
159		La Fabrique		http://www.lafabrique-bf.com			https://www.facebook.com/lafabriquebf/				Ouagadougou, Burkina Faso					contact@lafabrique-bf.com	afric'innov																				
160		LA RENCONTRE DES ENTREPRENEURS-SAS		http://www.entrepreneursenegal.com		RDEDAKAR					AGORA BUSINESS CENTER, VILLA N7 MERMOZ ,  DAKAR				La  Rencontre Des Entrepreneurs (RDE) est le 1�r Acc�l�rateur multisectoriel d'appui et d'accompagnement priv� du S�n�gal dont la  principale mission consiste �  rep�rer des PME � fort potentiel pour en faire des champions en leur  donnant acc�s au capital,  aux meilleures comp�tences  et   �  un  ensemble de r�seau   		afric'innov																				
161		Labess		https://www.labess.tn		LabessTN	https://www.facebook.com/LabessTunisie/				7 Rue du Docteur Alphonse Laveran, Tunis, Tunisie				contact@labess.tn	afric'innov																					
162		LaFactory		http://www.lafactory.co/		lafactory_co	https://www.facebook.com/LaFactoryByScreenDy/?ref=br_rs				Casablanca, Maroc					mehdi@lafactory.co // omaima@lafactory.co	afric'innov																				
163	12	Lake Hub		http://www.lakehub.co.ke/		LakeHub			-0.0974903	34.7525582999999	Accra Street, Kisumu, Kenya	Kisumu	Kisumu County	Kenya	LakeHub is bringing together the tech-enthusiasts of Western Kenya. We are an open community created to support individuals and businesses with an interest in technology in Western Kenya. LakeHub brings together programmers, creative, and entrepreneurs and connects them to resources, partners, and mentorship. 		afrilabs																				
164		Le Boukarou					https://www.facebook.com/LeboukarouOfficiel/				Douala, Cameroun				Au boukarou vous �tes chez vous, venez et ensemble nous allons surmonter les d�fis qui s'imposent � vous !	contact@leboukarou.digital.com	afric'innov																				
165		Lisungi Fablab		http://lisungifablab.org	x		http://lisungi fablab				44 Avenue De La D�mocratie, Kinshasa, R�publique d�mocratique du Congo				Le projet Lisungi FabLab est un atelier de fabrication num�rique ouvert � tous. Il a pour but de sensibiliser et d�velopper les comp�tences num�riques des jeunes d�favoris�s ou en rupture scolaire et des femmes en situation pr�caire en particulier, en travaillant avec des associations d�encadrement qui leur dispense des formations m�tiers dans le domaine de l�informatique, l��lectronique et la t�l�communication. Le projet met en place des actions qui les impliqueront dans la valorisation de leurs comp�tences, par le biais de l�initiation et la pratique dans diff�rents ateliers. 2 types d�activit�s sont pr�vus, notamment les formations a? la fabrication num�rique et l�accompagnement.	info@lisungifablab.org	afric'innov																				
166	58	Lumumba Labs		http://www.llab.cd/		LabLumumba	https://www.facebook.com/ZairInnov/		-4.038333	21.758664	253, Avenue Kimvula	Kinshasa		Democratic Republic of the Congo	Lumumba Labs began operation in October, 2014, and was officially registered in May, 2015 with a staff strength of 4.	start@llab.cd	afrilabs																				
167	38	m:Lab East Africa		http://mlab.co.ke/	not hub website							Nairobi		Kenya			worldbank																				
168		Maison de l�entrepreneur Congolais � MEC		http://www.maisondelentrepreneur.org	x		https://www.facebook.com/maisondelentrepreneurcongolais				8 Avenue de l&#039;Eglise , Quartier Gambela ,  Lubumbashi			La maison de l'entrepreneur Congolais MEC en sigle est une structure d�accompagnement en entrepreneuriat  et innovation bas�e � Lubumbashi en RDC. Sa  mission est d'accompagner les jeunes entreprises sociales  innovantes en RDC en leur offrant un espace de vie, logistique � moindre co�t, des espaces de travail collaboratifs, mise en r�seau avec d'autres acteurs de l'�cosyst�me entrepreneurial. Un programme d'incubation r�pondant aux normes internationales sera �galement mis en place	mec@maisondelentrepreneur.org	afric'innov																					
169		Maison de la Petite Entreprise		http://www.mpetchad.com							Quartier Moursal, Boulevard SAO, Rue 5018, B.P.: 111 , N&#039;Djamena						afric'innov																				
170		Makerere Innovation and Incubation Center		https://miichub.com/		miic_ug						Kampala		Uganda	Makerere University Startup Hub - Transforming ideas and innovations into successful companies.																						
171		makesense		http://africa.makesense.org		africamakesense					Rue Mermoz, Dakar, Dakar, S�n�gal						afric'innov																				
172	107	Mara Launchpad		http://www.mara-foundation.org/		MaraPhones						Kampala		Togo			worldbank																				
173	88	Mashinani Hub					https://www.facebook.com/mashinanihub/		-0.6708163	34.7771001	Kisii Country Club, Kisii, Kenya	Kisii	Kisii County	Kenya	Mashinani Hub is an innovation center that is focused on social impact, job creation and innovation.		afrilabs																				
174	21	Mawazo Hub		http://www.nftmawazo.com/	x				0.3119942	32.5844634	Uganda House, Kampala, Uganda	Kampala	Central Region	Uganda	The Mawazo Innovation Hub, a division of NFT Consult, was established to support emerging Next Generation ICT businesses through accelerated technology commercialization. The Mawazo Innovation Hub has created a unique space for high tech entrepreneurs, academics, researchers and venture capitalists to meet, network and collectively work towards growing the Ugandan economy through innovation.  		afrilabs																				
175	31	Mawazo Innovation Hub (Gabon)		https://mawazohub.com/					0.3935071	9.44680019999998	Gabon Telecom, Libreville, Estuaire, Gabon	Libreville	Estuaire	Gabon	The Mawazo Innovation Hub, a division of NFT Consult, was established to support emerging Next Generation ICT businesses .		afrilabs																				
176		MCISE		http://Mcise.org		moroccancise					Rabat, Maroc						afric'innov																				
177	28	mFriday		http://www.mfriday.org/	x	mfridays						Kumasi		Ghana			worldbank																				
178	22	mHub Malawi		http://www.mhubmw.com/		mHubMW			-15.7820588	35.0042201	Malawi Sun Hotel, Blantyre, Malawi	Blantyre	Southern Region	Malawi	mHub is Malawi�s first ever technology hub. An incubator for technology start-ups with a special focus on building young technology entrepreneurs through training, skills development and mentorship. mHub was founded in November 2013 by Rachel Sibande a young Malawian entrepreneur in the technology space. mHub seeks to enhance the growth of the ICT sector in Malawi by cultivating and nurturing a culture of entrepreneurship in technology among the youths through training, transfer of skills and mentorship in technology and business  	info@mhubmw.com	afrilabs																				
179		MIAWODO		http://www.entrepreneursdumonde.org		entrep_monde	https://www.facebook.com/miawodo/				Carrefour de la rue 71 et de la rue 232 � Aflao Gakli ,  Lom�				  Miawodo identifie les femmes et jeunes qui poss�dent des id�es ou des projets novateurs � fort potentiel de croissance et les accompagne � la cr�ation et au d�veloppement de leurs entreprises afin d�hisser ces entreprises au rang d�entreprises de croissance ou d�impacts � l��chelle nationale.  	edm.togo@entrepreneursdumonde.org	afric'innov																				
180	57	MICTI Technology and Business Centre		http://www.micti.co.mz/								Maputo		Mozambique			worldbank																				
181	64	Minna Tech Incubation Centre 		https://www.govserv.org/NG/Minna/537527556399104/Technology-Incubation-Centre-Minna								Minna		Nigeria			worldbank																				
182	13	MLab Southern Africa (SA)		https://www.mlab.co.za/		mlabsa			-25.7491488	28.2674629000001	The Enterprise Building, Allan Cormack St, Pretoria 0020, South Africa	Pretoria	Gauteng	South Africa	mLab Southern Africa (SA) is a mobile solutions laboratory and startup accelerator that provides entrepreneurs and mobile developers with the support they need to develop innovative mobile applications and services.  		afrilabs																				
183	78	Mobile Senegal 		http://mobilesenegal.org/								Dakar		Senegal			worldbank																				
184	27	Mobile Web Ghana		http://www.mobilewebghana.org/		MobileWebGhana			5.5712984	-0.146848299999988	Ghana International Trade Fair Centre, Accra, Ghana	Accra	Greater Accra Region	Ghana	Mobile Web Ghana was created as part of the World Wide Web Foundation�s Mobile Entrepreneurs in Africa program (sponsored by Vodafone) in 2010. It helps passionate people become mobile-technology entrepreneurs, by teaching them to create software applications that are accessible via mobile phones (whether via mobile websites, apps, SMS, or voice). It also helps to make them develop the business side of technology, and teach them mobile business: start-ups, market research, business models, etc.		afrilabs																				
185	30	Muzinda		https://www.muzindahub.co.zw/	x	MuzindaHub			-17.8118106	31.0895029000001	Zimbabwe Cricket, Maiden Drive, Harare, Zimbabwe	Harare	Harare Province	Zimbabwe	Muzinda is Zimbabwe�s first entrepreneurship and innovation Hub�a one-stop shop for idea development, innovation and digital skills.		afrilabs																				
186	13	Mwasi Tech Hub					https://www.facebook.com/mwasitechhub					Kinshasa		Cote D'Ivoire			worldbank																				
187	73	Nairobi Garage		https://nairobigarage.com/		nairobigarage			-1.2920659	36.8219462	Nairobi, Kenya	Nairobi	Nairobi County	Kenya	Nairobi Garage is a co-working space that is focused on social impact and professional solutions.		afrilabs																				
188	58	Namibia Business Innovation Centre (NBIC)		http://nbic.polytechnic.edu.na/		NBII_Namibia						Windhoek		Namibia			worldbank																				
189	63	National Board for Technology Incubation-Tech Incubation Headquarters		http://www.nbti.gov.ng/								Abuja		Nigeria			worldbank																				
190	54	New Work Lab		http://www.newworklab.com		newworklab						Casablanca		Morocco			worldbank																				
191	77	NexGen Technology Center		http://nexgentechs.org/		NexGenTechC			3.8480325	11.5020752	Yaounde, Cameroon	Yaounde	Centre	Cameroon	NexGen is an innovation hub that is focused on skill acquisition, youth engagement and innovation.	nextgentechcenter@gmail.com	afrilabs																				
192		NextA		http://www.nexta.mg	x	http://www.nexta.mg	https://www.facebook.com/nextA.mg/				Immeuble Tana Shore - Enceinte Futura Andranomena Antananarivo				<b>NextA</b> est b�tit sur 7 axes d'accompagnement:<ul><li>Mentoring/Coaching</li><li>Formations</li><li>R�seautage </li><li>Activit�s </li><li>Financement </li><li>Employabilit� </li><li>Lieu </li></ul>	contact@nexta.mg	afric'innov																				
193	41	nHub		http://www.nhubnigeria.com/		nHubNG			9.081999	8.67527700000005	Nigeria			Nigeria	nHub began operation in November, 2015 and was legally registered in 2016 with a current staff strength of 17. It is a technology innovation hub that runs incubation and acceleration programmes.  		afrilabs																				
194		Nlab				nlabcameroon						Ngoumou		Cameroon	Projet d'espace coworking & innovation au c�ur de la r�gion centre																						
195		NorthEast Innovation Hub		humanitarianihub.org		Northeast_iHub					NE Innovation Campus, No 3 Legom Close, Off Kashim Ibrahim Way, Jimeta 640221		Adamawa	Nigeria	NorthEast Innovation Hub is a dynamic community of creative minds and game changers collaborating on innovative solutions to the challenges faced by communities in North-Eastern part of Nigeria and the World as a whole.	info@humanitarianihub.org																					
196		O�Botama 		http://www.obotama.com		OBotama_aic	https://www.facebook.com/OBotama2018/				Biyem-Assi, Yaound�, Cameroun				contact@obotama.com	afric'innov																					
197		Obuntu Hub		https://obuntuhub.co.tz/		obuntuhub	https://web.facebook.com/obuntuhub/?_rdc=1&_rdr				Mega Complex-Arusha			Tanzania	Obuntu Hub is inspired by the notion of �obuntu� which can be translated as �collective progress.� We conceived the hub as a catalyst to drive collective progress for entrepreneurs and the community at large. Our focus is on empowering young entrepreneurs who innovate through tech or unique business models. 	hello@obuntuhub.co.tz																					
198	56	OCP Entrepreneurship Network		http://www.ocpentrepreneurship.org/	x							Casablanca		Morocco			worldbank																				
199	38	Ogooue Labs		https://about.me/ogoouelabs		OgooueLabs			0.3606914	9.46803190000003	Gabon Libreville, Libreville, Estuaire, Gabon	Libreville	Estuaire	Gabon	Ogooue Labs is the first coworking space in Gabon for entrepreneurs free, that are willing to get together in order to share & develop synergy.  		afrilabs																				
200	35	Oguaa Business Incubator										Cape Coast		Ghana			worldbank																				
201	66	Olotu Square (Lagos)		https://olotusquare.co/		olotusquare			6.6623005	3.2833564	Nigeria Newspapers, Lagos, Nigeria	Lagos	Lagos	Nigeria	Olotu Square		afrilabs																				
202	93	Olotu Square (Port Harcourt)		https://olotusquare.co/		olotusquare			4.815554	7.04984420000005	Port Harcourt, Nigeria	Port Harcourt	Rivers	Nigeria	Olotu Square is an innovation center focused on social impact, youth engagement and innovation. 		afrilabs																				
203		OMEDEMA		http://WWW.OMEDEMA.COM							1 Rue de la Mare Adam, Chaville, France				OMEDEMA est une soci�t� de conseil � impact d�di�e aux entreprises souhaitant d�velopper leurs activit�s en Afrique ou cr�er de l�innovation � travers les m�thodes d�velopp�es dans le contexte africain. Nous accompagnons les structures priv�es et publiques � d�velopper leurs strat�gies et nous leurs permettons aussi de cr�er de la richesse commune. OMEDEMA encourage les initiatives � impact social et soci�tal. Notre ambition est d�apporter l�ensemble des outils de la cr�ation � la commercialisation pour permettre aux projets d�atteindre le maximum de leur impact. OMEDEMA est un acteur cl� pour le d�veloppement de vos projets en Afrique de l�ouest francophone. Nous acc�l�rons et s�curisons vos projets de d�veloppement, gr�ce � notre r�seau local tiss� autour de partenariats strat�giques ainsi que notre r�seau de plus de 40 experts en Europe et en Afrique.	CONTACT@OMEDEMA.COM	afric'innov																				
204		ORIBI Village		http://www.oribivillage.com		ORIBIv	https://www.facebook.com/ORIBIVillage/				19 Park Road, Gardens, Cape Town, Afrique du Sud				ORIBI Village is a local initiative aiming at promoting Social Entrepreneurship throughout Cape Town.&nbsp;Through a collaborative co-working space and an Incubator dedicated to Social Projects, ORIBI Village is bridging the gaps caused by social and geographic inequalities while encouraging and popularizing the practice of Social Entrepreneurship as a way of business.<br>Last but not least, ORIBI Village organizes regular talks and events in order to showcase Cape Town's Social Entrepreneurs, network and inspire the community.	hello@oribivillage.com	afric'innov																				
205		Oser Innover		http://daretoinnovate.com/		DaretoInnovate	https://fr-fr.facebook.com/DaretoInnovate/										afric'innov																				
206	14	Outbox		http://www.outbox.co.ug/		OutboxHub			0.3229945	32.5766	Soliz House, Kampala, Uganda	Kampala	Central Region	Uganda	Outbox is a Kampala-based incubation, collaboration and co-creation space that supports techies and entrepreneurs  to turn their ideas into businesses while leveraging mobile and web technologies. 		afrilabs																				
207	91	Passion Incubator		https://www.passionincubator.ng/		P_Incubator			6.4524039	3.39685350000002	Lagos Island, Lagos, Nigeria	Lagos	Lagos	Nigeria	Passion Incubator is an innovation hub that focuses on job creation, skill acquisition and innovation. 		afrilabs																				
208		Playlab		https://www.play-international.org/le-playlab		pl4y					Villa Mamelles Aviation LOT num�ro 3 TF ,  Dakar					info@play-international.org	afric'innov																				
209		RAD5 Tech Hub		https://rad5.com.ng/		rad5techhub						Aba		Nigeria	A thriving technology-focused, innovation and startup incubation center dedicated to fostering the economic growth of Africa	info@rad5.com.ng																					
210	15	Reconstructed Living Lab (RLabs)		http://rlabs.org/		RLabs			-33.9538889	18.532508	66 Tarentaal Rd, Bridgetown, Cape Town 7769, South Africa	Cape Town	Western Cape	South Africa	Reconstructed Living Lab (RLabs) is a global movement and registered social enterprise that provides innovative solutions to address various complex problems.	info@rlabs.org	afrilabs																				
211		Refactory		https://www.refactory.ug/							3rd Floor Le Palm Building, Plot 244/245 Lubbobo Close off Tank Hill Road	Kampala		Uganda	Refactory is a tech program tailored to make tech talents job-ready. The program is created in partnership with � and for � the tech sector in Uganda.																						
212	82	Roothub Accelerator Systems		https://theroothub.com/		theroothub	https://www.facebook.com/theroothub/		4.876463	8.08569299999999	Uyo Airport, Uyo, Nigeria	Uyo	Akwa Ibom	Nigeria	Roothub is a co-creation space  that is focused on social impact, job creation and innovation. 		afrilabs																				
213		Saboutech					https://www.facebook.com/saboutech/				Bluezone De Dixinn, Conakry, Guin�e					projetsaboutech@gmail.com	afric'innov																				
214	95	Shinga Entrepreneurship and Learning Hub		http://www.shinga.co.zw/	x	shingahub	https://www.facebook.com/shingathespace/		-17.8330168	31.0855879000001	Mutare Road, Harare, Zimbabwe	Harare	Harare Province	Zimbabwe	Shinga Hub is a coworking space that is focused on job creation, skill acquisition and innovation		afrilabs																				
215	87	Silicon Cape Initiative		http://www.siliconcape.com/		siliconcape						Cape Town		South Africa 			worldbank																				
216		Sira Labs		https://www.sira-labs.com/							Festival Des Glaces, Ouagadougou, Burkina Faso					contact@sira-labs.com	afric'innov																				
217	115	Sky Hub Initiative		http://www.skyhub.co.zw/								Bulawayo		Zimbabwe			worldbank																				
218		SM LAB & CO		http://smlab.cool/		switch_maker	https://web.facebook.com/SMLabCO								contact@smlab.cool	afric'innov																					
219	93	Smart Xchange		http://www.smartxchange.co.za/								Durban		South Africa 			worldbank																				
220	74	Softstart Business and Technology Incubator		https://softstartbti.co.za/		SoftstartBTI			-26.2041028	28.0473051	Johannesburg, South Africa	Johannesburg	Gauteng	South Africa	Softstart Incubator is an innovation hub that is focused on social impact, job creation and innovation. 		afrilabs																				
221		SolidarIT		https://solidarit-hub.org		SolidaritHub	https://www.facebook.com/SolidarItHub/				Solidar&#039;it, Boulevard Steinmetz, Cotonou, B�nin			Solidar'it est un espace num�rique ouvert, un espace de formation et de rencontres autour du num�rique associ� � un incubateur d�entreprises num�riques naissantes.&nbsp; Notre ambition est d�offrir � la jeunesse en qu�te de savoir un espace de formation et � un groupe de concepteurs de produits num�riques, les ressources n�cessaires au d�marrage d�un projet d�entreprise num�rique.  SOLIDAR�IT est port� par le Club Associatif le Club Perspectives +, un Club de R�flexions, de Propositions et d�Actions intervenant dans plusieurs secteurs comme la Sant�, l�Education, le Dev Durable, le Num�rique et bien d�autres. Avec une entit� au B�NIN, en FRANCE et au CANADA, le Club Perspectives + concr�tise depuis pr�s de 10 ans maintenant plusieurs projets avec ses �quipes et un reseau de partenaires et de b�n�voles performant.		afric'innov																					
222	49	Sote hub		http://www.sotehub.com/		Sote_Hub			-0.023559	37.906193	Kenya			Kenya	Sote hub began operations in November, 2015 and was legally registered in December, 2015 with a staff strength of 5. They are an innovation hub that run incubation and acceleration programmes focused on job creation and youth engagement. Its major source of income comes from Europe		afrilabs																				
223	20	Start Innovation Hub		http://www.starthub.com.ng/		StartHub_Tech			5.0377396	7.91279450000002	Uyo, Akwa Ibom, Nigeria	Uyo	Akwa Ibom	Nigeria	Start Innovation Hub is an innovation lab in Uyo, Nigeria. It was incorporated in May 2014 to help technology startups with software and hardware ideas start up faster. Start Hub aims at stimulating economic growth in the technology community by providing key ingredients like seed funding, mentorship and access to business expertise. Others are networking opportunities, peer review, pitch development, product testing and introduction to investors. 		afrilabs																				
224	98	Start-up Garage/ 98MPH		www.88mph.ac/capetown		88mph_Africa						Capetown		South Africa 			worldbank																				
225		StartOpp Zone		http://startoppzone.com			http://https	//facebook.com/startoppzone				22/121 Atron, N&#039;Djamena				startoppzone@rjdlt.com	afric'innov																				
226	39	Startpreneurs		http://www.startpreneurs.com.ng/		startpreneurs			9.081999	8.67527700000005	Nigeria			Nigeria	Startpreneurs began operation in January, 2016 and was legally registered in December 2015 with a current staff strength of 20.  	info@startpreneurs.com.ng	afrilabs																				
227	85	Startup 90									Buchanan Square, Sir Lowry Road, Woodstock, Cape Town, 7925	Cape Town		South Africa			worldbank																				
228		STARTUP FACTORY		http://www.startupdjibouti.com		SDjbouti	https://www.facebook.com/StartUpDjibouti/				Djibouti				STARTUP FACTORY est un acc�l�rateur des startups lanc� de Djibouti . StartUp Factory a pour  vocation d�encourage et d�investir dans des  entrepreneurs brillants et passionn�s avec  des id�es nouvelles et ambitieuses .  Lanc� en septembre 2018 , StartUp Factory  est un programme de startup en d�marrage  ainsi qu�une mise en relation d'un&nbsp; fond d�amor�age destin� �  acc�l�rer la croissance des startups&nbsp; Djiboutiennes et fournir un boost r�gulier �  l�industrie croissante de l �conomie Digital  � Djibouti .	contact@startupdjibouti.com	afric'innov																				
229	25	STIC Lab		http://www.sticlab.co.tz/					-6.8234286	39.2680669	Tanzania Breweries, Dar es Salaam, Tanzania	Dar es Salaam		Tanzania	STICLab LTD is the first Maker Space in Tanzania with a state of the art digital fabrication Lab where 80% of the equipment being used is made locally by STICLab itself. This equipment includes tools such as CNC Milling Machines and 3D printers. STICLab�s Technology and Innovation Centre is designed to provide a productive environment for scientists, makers and innovators, providing full access to a Lab and Workshop facilities that support product development from idea creation through to production. We welcome individuals from different backgrounds with engineering and technical ideas that could transform society to use our facilities.		afrilabs																				
230	78	Swahilipot Hub		https://swahilipothub.co.ke/	x	swahilipothub			-4.0434771	39.6682065	Mombasa, Kenya	Mombasa	Mombasa County	Kenya	Swahilipot Hub is an innovation hub that is focused on social impact, job creation, skill acquisition, youth engagement and innovation. 		afrilabs																				
231	70	Sylabs		http://sylabs-dz.com/		sylabsdz			28.033886	1.659626	Algeria			Algeria	Sylabs is an innovation hub that is focused on social impact, skill acquisition and innovation.	hello@sylabs-dz.com	afrilabs																				
232		Tamkeen Center		http://www.tamkeen.ma		CenterTamkeen					Oujda, Maroc				Tamkeen Center est une initiatve priv�e et apolitique, mais accueille toute contribution et appui technique et financiers pour favoriser le d�ploiement de son activit� � plus grande �chelle.&nbsp;	contact@tamkeen.ma	afric'innov																				
233	104	TANZICT		http://tanzict.or.tz/								Dar es Salaam		Tanzania			worldbank																				
234	84	TechinBraam		http://techinbraam.co.za								Johannesburg		South Africa			worldbank																				
235		TECHNIPOLE SUP VALOR		http://www.technipole-supvalor.com							Yaound�, Cameroun				Notre cr�do c'est : <b>discipline</b>, <b>travail</b> et <b>performance</b> et nous souhaitons participer activement � la construction de l'�cosyst�me entrepreneurial africain.	gkamande@technipole-supvalor.com	afric'innov																				
236	22	Technology Innovation Entrepreneurship Center		http://www.tiec.gov.eg/en-US/Pages/default.aspx								Cairo		Egypt			worldbank																				
237		TECHNOPARK		https://www.technopark.ma/s/	x	technopark	https://web.facebook.com/pages/Technopark							contact@technopark.ma	afric'innov																						
238	71	Technopole de la Reunion 		http://technopole-reunion.com								Saint Denis (Sainte Clotilde)		Reunion			worldbank																				
239	83	Tentmaker		https://www.tentmakergh.com/	x	TentmakerGhana			5.6004186	-0.183411500000034	accra, Ghana Airways Avenue, Accra, Ghana	Accra	Greater Accra Region	Ghana	Tentmaker is a co-creation space  that is focused on social impact, job creation and innovation.  		afrilabs																				
240	54	The Bandwidth Barn		https://www.citi.org.za/spaces/					-30.559482	22.937506	South Africa			South Africa	Cape Town�s The Bandwidth Barn (TheBarn) enables people to start successful businesses, develop great products and help change the world   		afrilabs																				
241	57	The District		http://district-egypt.com/	x	District_Egy			26.820553	30.802498	Egypt			Egypt	The District is an inspiring coworking space for game-changing entrepreneurs and freelancers with social capital.  		afrilabs																				
242	21	The Greek Campus		http://www.thegreekcampus.com/#		TheGrEEKCampus						Cairo		Egypt			worldbank																				
243	96	The House 4 Hack		www.house4hack.co.za								Pretoria		South Africa 			worldbank																				
244	52	The Innovation Hub		https://theinnovationhub.com/		InnovHub			-30.559482	22.937506	South Africa			South Africa	The Innovation Hub 	info@theinnovationhub.com	afrilabs																				
245	50	The Innovation Village		http://www.innovationvillage.co.ug/		TheVillageUG			1.373333	32.2902750000001	Uganda			Uganda	Kampala began operations in December, 2015 and was legally registered in July, 2015 with a staff strength of 4.  		afrilabs																				
246	51	The Mawazo Innovation Hub (Uganda)		https://mawazohub.com/					0.3119942	32.5844634	Uganda House, Kampala, Uganda	Kampala	Central Region	Uganda	The Mawazo Innovation Hub, a division of NFT Consult, was established to support emerging Next Generation ICT businesses .  		afrilabs																				
247	16	The Meltwater Entrepreneurial School of Technology (MEST)		http://meltwater.org/		MESTAfrica			5.6446677	-0.152526599999987	Aluguntugui St, Accra, Ghana	Accra	Greater Accra Region	Ghana	The Meltwater Entrepreneurial School of Technology (MEST) provides training and mentoring for aspiring African software entrepreneurs with the goal of creating wealth and jobs locally in Africa.		afrilabs																				
248	17	The NaiLab		http://nailab.co.ke/		thenailab			-1.3373892	36.6891955999999	Ngong View Road, Nairobi, Kenya	Nairobi	Nairobi County	Kenya	The NaiLab is a startup accelerator that focuses on early stage business ideas that are likely to have a large social and economic impact, are highly scalable, require minimum investments to prototype and have a strong value proposition. We offer a 3 to 12 months entrepreneurship program for growing innovative technology-driven ideas.  		afrilabs																				
249	18	The Office		http://theoffice.rw/	x	TheOfficeRW	https://facebook.com/TheOfficeRW/?__tn__=%2AsH-R		-1.9517449	30.0610748	26 KN 3 Road, Kigali, Rwanda	Kigali	Kigali City	Rwanda	The Office is a coworking space, a community innovation hub, a physical entrepreneurial ecosystem, and an art gallery...among other things. 		afrilabs																				
250		THE PLUG		http://www.theplugbybo.com			https://www.facebook.com/the.plug.by.bo				R�sidence les Terrasses D&#039;Oran, Bir El Djir, Oran				The Plug est un programme d�incubation propose? par BOPlug a? toute entrepreneur ayant un projet en lien avec le de?veloppement de l'expe?rience client. Plus innovant, plus digitale et plus respectueux des nouvelles attentes environnementales.	contact@thepugbybo.com	afric'innov																				
251	53	The Tech Village		http://www.techvillage.org.zw/		TechVillagezw			-19.015438	29.154857	Zimbabwe			Zimbabwe	The Tech Village began operations in May, 2016 and was legally registered in September, 2016 with a staff strength of 5.  		afrilabs																				
252	10	The W Hub		http://www.thewhub.com/		thewhub						Abidjan		Cote d'Ivoire			worldbank																				
253	110	TheHub		http://thehubkampala.com/		HUBKampala						Kampala		Uganda			worldbank																				
254	74	THINK Technology Incubator 		http://www.think.rw								Kigali		Rwanda			worldbank																				
255	83	ThoughtWorks		http://info.thoughtworks.com/		thoughtworks						Johannesburg		South Africa			worldbank																				
256	102	TIH-The Innovation Hub 		www.theinnovationhub.com								Pretoria		South Africa 			worldbank																				
257		total-startup-center					http://facebook.com/TotalCongo	https://www.linkedin.com/company/incubateur-total-startup-center			Avenue raymond Poincar�, 3�me �tage du b�timent Solemare					princilia-doris.mizere@total.com	afric'innov																				
258	90	Tribe							6.2757656	7.00683930000002	Anambra, Nigeria		Anambra	Nigeria	Tribe is an innovation centre that is focuses on skill acquisition, social impact and innovation.  		afrilabs																				
259		Trustee sas		http://www.trustees.fr		TrusteeVC	https://www.facebook.com/TrusteeVC/				Tombo ,  Kaloum, Conakry				Trustee est une soci�t� qui accompagne et investit en position minoritaire dans les startups innovantes. Trustee intervient �galement � divers stades de d�veloppement dans des Startups et Pme  � fort potentiel de croissance. Nous offrons �galement un espace de travail partag� (Coworking) et d'autres prestations � la carte pour mieux repondre au besoin des porteurs de projet. �	contact@trustees.fr	afric'innov																				
260	24	Twende Hub		http://www.twende-tanzania.org/					6.3335725	-3.17231800000002	Tanzania, Western Region, Ghana	Tanzania	Western Region	Ghana	Twende hub was founded in 2007 to identify local needs & engineer new technology solutions, empower entrepreneurs, offer business support, and encourage local innovation. Also to empower Tanzanians to design, develop, and disseminate life-improving technology solutions to the challenges they and their communities face. 		afrilabs																				
261		UAC Startup Valley		http://www.uacstartupvalley.com			https://www.facebook.com/uacstartupvalley/				Abomey Calavi, B�nin					uacstartupvalley@uacstartupvalley.com	afric'innov																				
262	72	Uplift Hub		https://uplift.ng/		uplifthubng			10.3009641	9.82365329999993	Bauchi, Nigeria	Bauchi	Bauchi	Nigeria	Uplift Hub is an innovation hub that is focused on social impact, job creation, skill acquisition, youth engagement and innovation.	info@uplift.ng	afrilabs																				
263	26	Ventures Platform		http://www.venturesplatform.com/		vplatformhub			9.0438014	7.49190239999996	Abuja International Conference Centre, Herbert Macaulay Way, Abuja, Nigeria	Abuja	Federal Capital Territory	Nigeria	Ventures Platform (VP) is a world-class full-service innovation hub in Abuja. At the core of VP's value proposition is an intensive 16-week hybrid incubation program, a residence for need-based cohorts and a paid co-working space for free-lance entrepreneurs and professionals on the go. VP�s Incubation program offers start-ups a unique mix of workspace, business strategy and capacity building, short term residency for accepted fellows and seed funding for innovative ideas. And every tool needed to survive, grow and ultimately thrive.		afrilabs																				
264		VERDE VENTURES LTD		http://www.verdefrontier.mu/							Eb�ne, Quatre Bornes, Maurice						afric'innov																				
265		VOISINAGE		https://www.uvci.edu.ci/			https://www.facebook.com/uvciv/									muhamad.adebayo@uvci.edu.ci&gt	afric'innov																				
266	33	Wenak Labs		http://www.wenaklabs.org/		WenakLabs	https://www.facebook.com/wenaklabs		13.1078947	14.4490398	Immeuble BSIC, 2eme �tage		N�Djamena	Chad	began operation in April, 2014, and was officially registered in July, 2015. They are an innovation and co-creation hub focused on social impact, skill acquisition, job creation and youth engagement.	contact@wenaklabs.org	afrilabs																				
267	42	Wennovation Hub		http://www.wennovationhub.org/		wennovation			9.081999	8.67527700000005	Nigeria			Nigeria	The Wennovation Hub was founded in August 2010, to accelerate HIGH IMPACT entrepreneurs into the marketplace 		afrilabs																				
268	108	Wiki Start Up		http://www.wikistartup.tn/		WIKISTARTUP						Tunis		Tunisia			worldbank																				
269	92	Wired Startups		https://wiredstartups.business.site/		WiredStartups			31.791702	-7.09262000000001	Morocco			Morocco	Wired Startups is an Incubator/Accelerator that is focused on job creation, skill acquisition and innovation.		afrilabs																				
270	19	Woe Lab		http://www.woelabo.com/					4.9255857	-2.32036949999997	Gulf of Guinea, Esiama, Ghana	Esiama	Western Region	Ghana	With twenty members, the Woe Lab, a young innovative community in Lome, Togo, is the first African space dedicated to technology democracy. 		afrilabs																				
271	113	Women in Technology Uganda (WITU)		http://witug.org/		wituganda						Kampala		Uganda			worldbank																				
272	32	xHub		http://www.xhubaddis.com/		xhubaddis			8.9806034	38.7577605	Addis Ababa, Ethiopia	Addis Ababa	Addis Ababa	Ethiopia	Addis Ababa�s xHub Innovative Society is an open space for IT entrepreneurs, innovators, technologists, investors, tech companies..		afrilabs																				
273	84	Y-BECA Youth Entrepreneurship Foundation		http://www.y-beca.org/	x			https://ru.linkedin.com/company/y-beca-youth-entrepreneurship-foundation	-26.20222	28.049388	Johannesburg Sewing Centre, Pritchard Street, Hillbrow, Johannesburg, South Africa	Johannesburg	Gauteng	South Africa	Y-BECA is an incubator and accelerator that is focused on social impact, job creation and innovation		afrilabs																				
274	6	Yam Pukri		http://www.yam-pukri.org/		yam_pukri						Ouagadougou		Burkina Faso			worldbank																				
275		YESAAL AGRI HUB		http://yeesalhub.org/			https://fr-fr.facebook.com/yeesalagrihub/									yeesalagrihub@gmail.com	afric'innov																				
276		Youth CDC		http://www.youthcdc.com	x		https://www.facebook.com/YouthCDC/				Avedji-Elavagnon, Lom�, Togo				"Youth CDC est un programme d'accompagnement � la lev�e de fonds et de d�veloppement d'entreprises qui a pour ambition de lutter contre le ch�mage des jeunes en Afrique par la promotion de l'entrepreneuriat. Le programme d�veloppe une approche innovante d'accompagnement autour d'un programme de formation certifiant d�nomm� <b>""Certificate in Development of Innovation Companies"" -CDIC</b>."	youthcdcprogram@gmail.com	afric'innov																				
277		ZEN Lab		http://www.zenlab.com.tn/		ZENLAB_tunisie	http://www.facebook.com/ZENLAB.Tunisie/				Immeuble Emeraude Center, Jardins du Lac 2 , Tunis, Tunisie					contact@zenlab.com.tn	afric'innov																				
278		Sahara Ventures		https://saharaventures.com/sahara-accelerator		VenturesSahara											afric'innov																				
279		senfablab				senfablab	https://www.facebook.com/senfablab							Senegal																							
